STARLINK-36816          
1 67891U 26035N   26065.25002315 -.01188848  43585-3 -28180-2 0  9993
2 67891  97.2717 357.3638 0001094 109.3171 286.0535 15.96776234  3098
STARLINK-36813          
1 67892U 26035P   26065.25002315 -.01167780  41976-3 -28322-2 0  9996
2 67892  97.2709 357.3523 0000975  97.8191 270.1973 15.96351036  3205
STARLINK-36803          
1 67893U 26035Q   26065.25002315 -.01134437  39637-3 -28027-2 0  9993
2 67893  97.2726 357.3420 0001117 113.2518 226.1420 15.96002856  3207
STARLINK-36846          
1 67894U 26035R   26065.25002315 -.01140614  40080-3 -28029-2 0  9994
2 67894  97.2723 357.3462 0001267 122.9997 226.6900 15.96102507  3207
STARLINK-36866          
1 67895U 26035S   26065.25002315 -.01150255  40737-3 -28173-2 0  9996
2 67895  97.2722 357.3480 0001097 105.8147 248.4217 15.96165533  3206
STARLINK-36877          
1 67896U 26035T   26065.25002315 -.01141518  40116-3 -28133-2 0  9996
2 67896  97.2723 357.3439 0000998  97.4430 247.2959 15.96049238  3205
STARLINK-36870          
1 67897U 26035U   26065.25002315 -.01155441  41100-3 -28224-2 0  9992
2 67897  97.2718 357.3498 0001036 105.3268 254.0448 15.96216399  3200
STARLINK-36810          
1 67898U 26035V   26065.25002315 -.01158309  41319-3 -28190-2 0  9993
2 67898  97.2718 357.3514 0001001 100.3167 263.2349 15.96285114  3208
STARLINK-36878          
1 67899U 26035W   26065.25002315 -.01163846  41744-3 -28121-2 0  9992
2 67899  97.2717 357.3548 0001123 115.0893 256.7898 15.96419379  3207
STARLINK-36361          
1 67900U 26035X   26065.25002315 -.01172172  42331-3 -28216-2 0  9995
2 67900  97.2715 357.3568 0001104 109.8930 266.4909 15.96489810  3200
STARLINK-36336          
1 67901U 26035Y   26065.25002315 -.01177021  42755-3 -28002-2 0  9997
2 67901  97.2724 357.3630 0001008 108.3066 281.7858 15.96707789  3254
STARLINK-36876          
1 67902U 26035Z   26065.25002315 -.01166513  41984-3 -27972-2 0  9990
2 67902  97.2722 357.3595 0001087 113.4549 266.9451 15.96559985  3205
STARLINK-36257          
1 67903U 26035AA  26065.25002315 -.01167695  42097-3 -27889-2 0  9996
2 67903  97.2721 357.3602 0001001 108.4497 276.1449 15.96634025  3250
STARLINK-36814          
1 67904U 26036A   26065.25002315  .00020839  00000+0  10134-3 0  9993
2 67904  42.9993 270.8897 0002621 258.5452 161.3592 15.81996579  3096
STARLINK-36729          
1 67905U 26036B   26065.25002315 -.00216085  00000+0 -10423-2 0  9996
2 67905  42.9997 270.8781 0002212 291.7484 132.3999 15.82156578  3090
STARLINK-36763          
1 67906U 26036C   26065.25002315  .00006229  00000+0  32106-4 0  9996
2 67906  42.9996 270.8670 0002135 242.9078 185.5355 15.82007387  3097
